STARLINK-31675          
1 59548U 24074Q   26068.15009721 -.00003433  00000+0 -11533-3 0  9995
2 59548  43.0020 346.4129 0000091  29.6362 330.4495 15.27570707105936
TEVEL2-8                
1 63239U 25052AF  26068.66815442  .00019130  00000+0  69304-3 0  9993
2 63239  97.4055 324.2923 0008031 124.9191 235.2804 15.28392908 54807
